[
    {
        "CCSDS_OMM_VERS": "3.0",
        "COMMENT": "GENERATED VIA SPACE-TRACK.ORG API",
        "CREATION_DATE": "2024-08-10T22:56:16",
        "ORIGINATOR": "18 SPCS",
        "OBJECT_NAME": "STARLINK-11147",
        "OBJECT_ID": "2024-133A",
        "CENTER_NAME": "EARTH",
        "REF_FRAME": "TEME",
        "TIME_SYSTEM": "UTC",
        "MEAN_ELEMENT_THEORY": "SGP4",
        "EPOCH": "2024-08-10T22:00:00.999936",
        "MEAN_MOTION": "15.82143834",
        "ECCENTRICITY": "0.00010210",
        "INCLINATION": "53.1641",
        "RA_OF_ASC_NODE": "108.1599",
        "ARG_OF_PERICENTER": "237.2140",
        "MEAN_ANOMALY": "126.9399",
        "EPHEMERIS_TYPE": "0",
        "CLASSIFICATION_TYPE": "U",
        "NORAD_CAT_ID": "60301",
        "ELEMENT_SET_NO": "999",
        "REV_AT_EPOCH": "328",
        "BSTAR": "-0.00929670000000",
        "MEAN_MOTION_DOT": "-0.01688805",
        "MEAN_MOTION_DDOT": "0.0000000000000",
        "SEMIMAJOR_AXIS": "6702.516",
        "PERIOD": "91.016",
        "APOAPSIS": "325.065",
        "PERIAPSIS": "323.697",
        "OBJECT_TYPE": "PAYLOAD",
        "RCS_SIZE": "LARGE",
        "COUNTRY_CODE": "US",
        "LAUNCH_DATE": "2024-07-28",
        "SITE": "AFWTR",
        "DECAY_DATE": null,
        "FILE": "4427676",
        "GP_ID": "264741633",
        "TLE_LINE0": "0 STARLINK-11147",
        "TLE_LINE1": "1 60301U 24133A   24223.91667824 -.01688805  00000-0 -92967-2 0  9992",
        "TLE_LINE2": "2 60301  53.1641 108.1599 0001021 237.2140 126.9399 15.82143834  3289"
    },
    {
        "CCSDS_OMM_VERS": "3.0",
        "COMMENT": "GENERATED VIA SPACE-TRACK.ORG API",
        "CREATION_DATE": "2024-08-10T22:36:16",
        "ORIGINATOR": "18 SPCS",
        "OBJECT_NAME": "STARLINK-32203",
        "OBJECT_ID": "2024-136C",
        "CENTER_NAME": "EARTH",
        "REF_FRAME": "TEME",
        "TIME_SYSTEM": "UTC",
        "MEAN_ELEMENT_THEORY": "SGP4",
        "EPOCH": "2024-08-10T22:00:00.999936",
        "MEAN_MOTION": "15.91212648",
        "ECCENTRICITY": "0.00004870",
        "INCLINATION": "53.1546",
        "RA_OF_ASC_NODE": "239.1569",
        "ARG_OF_PERICENTER": "105.5837",
        "MEAN_ANOMALY": "300.0158",
        "EPHEMERIS_TYPE": "0",
        "CLASSIFICATION_TYPE": "U",
        "NORAD_CAT_ID": "60331",
        "ELEMENT_SET_NO": "999",
        "REV_AT_EPOCH": "244",
        "BSTAR": "-0.00180210000000",
        "MEAN_MOTION_DOT": "-0.00591170",
        "MEAN_MOTION_DDOT": "0.0001188400000",
        "SEMIMAJOR_AXIS": "6677.025",
        "PERIOD": "90.497",
        "APOAPSIS": "299.216",
        "PERIAPSIS": "298.565",
        "OBJECT_TYPE": "PAYLOAD",
        "RCS_SIZE": "LARGE",
        "COUNTRY_CODE": "US",
        "LAUNCH_DATE": "2024-08-02",
        "SITE": "AFETR",
        "DECAY_DATE": null,
        "FILE": "4427398",
        "GP_ID": "264732063",
        "TLE_LINE0": "0 STARLINK-32203",
        "TLE_LINE1": "1 60331U 24136C   24223.91667824 -.00591170  11884-3 -18021-2 0  9999",
        "TLE_LINE2": "2 60331  53.1546 239.1569 0000487 105.5837 300.0158 15.91212648  2448"
    },
    {
        "CCSDS_OMM_VERS": "3.0",
        "COMMENT": "GENERATED VIA SPACE-TRACK.ORG API",
        "CREATION_DATE": "2024-08-10T22:56:16",
        "ORIGINATOR": "18 SPCS",
        "OBJECT_NAME": "HEAD-1",
        "OBJECT_ID": "2017-072B",
        "CENTER_NAME": "EARTH",
        "REF_FRAME": "TEME",
        "TIME_SYSTEM": "UTC",
        "MEAN_ELEMENT_THEORY": "SGP4",
        "EPOCH": "2024-08-10T21:59:38.158368",
        "MEAN_MOTION": "14.27730322",
        "ECCENTRICITY": "0.00093030",
        "INCLINATION": "98.9467",
        "RA_OF_ASC_NODE": "213.5284",
        "ARG_OF_PERICENTER": "318.5074",
        "MEAN_ANOMALY": "41.5399",
        "EPHEMERIS_TYPE": "0",
        "CLASSIFICATION_TYPE": "U",
        "NORAD_CAT_ID": "43011",
        "ELEMENT_SET_NO": "999",
        "REV_AT_EPOCH": "35095",
        "BSTAR": "0.00056149000000",
        "MEAN_MOTION_DOT": "0.00001340",
        "MEAN_MOTION_DDOT": "0.0000000000000",
        "SEMIMAJOR_AXIS": "7177.464",
        "PERIOD": "100.859",
        "APOAPSIS": "806.007",
        "PERIAPSIS": "792.652",
        "OBJECT_TYPE": "PAYLOAD",
        "RCS_SIZE": "MEDIUM",
        "COUNTRY_CODE": "PRC",
        "LAUNCH_DATE": "2017-11-14",
        "SITE": "TSC",
        "DECAY_DATE": null,
        "FILE": "4427613",
        "GP_ID": "264739490",
        "TLE_LINE0": "0 HEAD-1",
        "TLE_LINE1": "1 43011U 17072B   24223.91641387  .00001340  00000-0  56149-3 0  9994",
        "TLE_LINE2": "2 43011  98.9467 213.5284 0009303 318.5074  41.5399 14.27730322350956"
    },
    {
        "CCSDS_OMM_VERS": "3.0",
        "COMMENT": "GENERATED VIA SPACE-TRACK.ORG API",
        "CREATION_DATE": "2024-08-10T22:56:16",
        "ORIGINATOR": "18 SPCS",
        "OBJECT_NAME": "OPS 6582 (TRANSIT 5E-5)",
        "OBJECT_ID": "1964-083C",
        "CENTER_NAME": "EARTH",
        "REF_FRAME": "TEME",
        "TIME_SYSTEM": "UTC",
        "MEAN_ELEMENT_THEORY": "SGP4",
        "EPOCH": "2024-08-10T21:59:15.774720",
        "MEAN_MOTION": "13.62121670",
        "ECCENTRICITY": "0.00435710",
        "INCLINATION": "89.9979",
        "RA_OF_ASC_NODE": "186.9251",
        "ARG_OF_PERICENTER": "134.5505",
        "MEAN_ANOMALY": "287.0040",
        "EPHEMERIS_TYPE": "0",
        "CLASSIFICATION_TYPE": "U",
        "NORAD_CAT_ID": "959",
        "ELEMENT_SET_NO": "999",
        "REV_AT_EPOCH": "95873",
        "BSTAR": "0.00063692000000",
        "MEAN_MOTION_DOT": "0.00000505",
        "MEAN_MOTION_DDOT": "0.0000000000000",
        "SEMIMAJOR_AXIS": "7406.128",
        "PERIOD": "105.717",
        "APOAPSIS": "1060.263",
        "PERIAPSIS": "995.724",
        "OBJECT_TYPE": "PAYLOAD",
        "RCS_SIZE": "LARGE",
        "COUNTRY_CODE": "US",
        "LAUNCH_DATE": "1964-12-13",
        "SITE": "AFWTR",
        "DECAY_DATE": null,
        "FILE": "4427547",
        "GP_ID": "264739904",
        "TLE_LINE0": "0 OPS 6582 (TRANSIT 5E-5)",
        "TLE_LINE1": "1   959U 64083C   24223.91615480  .00000505  00000-0  63692-3 0  9990",
        "TLE_LINE2": "2   959  89.9979 186.9251 0043571 134.5505 287.0040 13.62121670958733"
    },
    {
        "CCSDS_OMM_VERS": "3.0",
        "COMMENT": "GENERATED VIA SPACE-TRACK.ORG API",
        "CREATION_DATE": "2024-08-10T22:56:16",
        "ORIGINATOR": "18 SPCS",
        "OBJECT_NAME": "CZ-6A DEB",
        "OBJECT_ID": "2022-151FX",
        "CENTER_NAME": "EARTH",
        "REF_FRAME": "TEME",
        "TIME_SYSTEM": "UTC",
        "MEAN_ELEMENT_THEORY": "SGP4",
        "EPOCH": "2024-08-10T21:59:11.444352",
        "MEAN_MOTION": "13.83905199",
        "ECCENTRICITY": "0.01712100",
        "INCLINATION": "98.8800",
        "RA_OF_ASC_NODE": "202.4359",
        "ARG_OF_PERICENTER": "166.9601",
        "MEAN_ANOMALY": "193.6065",
        "EPHEMERIS_TYPE": "0",
        "CLASSIFICATION_TYPE": "U",
        "NORAD_CAT_ID": "54447",
        "ELEMENT_SET_NO": "999",
        "REV_AT_EPOCH": "8796",
        "BSTAR": "0.00059500000000",
        "MEAN_MOTION_DOT": "0.00000699",
        "MEAN_MOTION_DDOT": "0.0000000000000",
        "SEMIMAJOR_AXIS": "7328.205",
        "PERIOD": "104.053",
        "APOAPSIS": "1075.536",
        "PERIAPSIS": "824.604",
        "OBJECT_TYPE": "DEBRIS",
        "RCS_SIZE": "SMALL",
        "COUNTRY_CODE": "PRC",
        "LAUNCH_DATE": "2022-11-11",
        "SITE": "TSC",
        "DECAY_DATE": null,
        "FILE": "4427681",
        "GP_ID": "264740900",
        "TLE_LINE0": "0 CZ-6A DEB",
        "TLE_LINE1": "1 54447U 22151FX  24223.91610468  .00000699  00000-0  59500-3 0  9999",
        "TLE_LINE2": "2 54447  98.8800 202.4359 0171210 166.9601 193.6065 13.83905199 87963"
    },
    {
        "CCSDS_OMM_VERS": "3.0",
        "COMMENT": "GENERATED VIA SPACE-TRACK.ORG API",
        "CREATION_DATE": "2024-08-10T22:56:16",
        "ORIGINATOR": "18 SPCS",
        "OBJECT_NAME": "HAIYANG 2D",
        "OBJECT_ID": "2021-043A",
        "CENTER_NAME": "EARTH",
        "REF_FRAME": "TEME",
        "TIME_SYSTEM": "UTC",
        "MEAN_ELEMENT_THEORY": "SGP4",
        "EPOCH": "2024-08-10T21:56:53.963808",
        "MEAN_MOTION": "13.83374780",
        "ECCENTRICITY": "0.00117620",
        "INCLINATION": "65.9965",
        "RA_OF_ASC_NODE": "185.8942",
        "ARG_OF_PERICENTER": "268.8217",
        "MEAN_ANOMALY": "91.1503",
        "EPHEMERIS_TYPE": "0",
        "CLASSIFICATION_TYPE": "U",
        "NORAD_CAT_ID": "48621",
        "ELEMENT_SET_NO": "999",
        "REV_AT_EPOCH": "16318",
        "BSTAR": "0.00016543000000",
        "MEAN_MOTION_DOT": "0.00000101",
        "MEAN_MOTION_DDOT": "0.0000000000000",
        "SEMIMAJOR_AXIS": "7330.078",
        "PERIOD": "104.093",
        "APOAPSIS": "960.565",
        "PERIAPSIS": "943.322",
        "OBJECT_TYPE": "PAYLOAD",
        "RCS_SIZE": "LARGE",
        "COUNTRY_CODE": "PRC",
        "LAUNCH_DATE": "2021-05-19",
        "SITE": "JSC",
        "DECAY_DATE": null,
        "FILE": "4427648",
        "GP_ID": "264740197",
        "TLE_LINE0": "0 HAIYANG 2D",
        "TLE_LINE1": "1 48621U 21043A   24223.91451347  .00000101  00000-0  16543-3 0  9992",
        "TLE_LINE2": "2 48621  65.9965 185.8942 0011762 268.8217  91.1503 13.83374780163183"
    }
]